[{"OBJECT_NAME":"STARLINK-30341","OBJECT_ID":"2023-129S","EPOCH":"2025-08-14T05:52:11.277408","MEAN_MOTION":15.02530042,"ECCENTRICITY":9.88e-5,"INCLINATION":43.0039,"RA_OF_ASC_NODE":167.1123,"ARG_OF_PERICENTER":271.9473,"MEAN_ANOMALY":88.1257,"EPHEMERIS_TYPE":0,"CLASSIFICATION_TYPE":"U","NORAD_CAT_ID":57714,"ELEMENT_SET_NO":999,"REV_AT_EPOCH":10945,"BSTAR":0.00013254,"MEAN_MOTION_DOT":1.587e-5,"MEAN_MOTION_DDOT":0},{"OBJECT_NAME":"STARLINK-30300","OBJECT_ID":"2023-129T","EPOCH":"2025-08-14T05:04:23.675232","MEAN_MOTION":15.02530979,"ECCENTRICITY":0.0001083,"INCLINATION":43.0019,"RA_OF_ASC_NODE":167.7268,"ARG_OF_PERICENTER":269.0432,"MEAN_ANOMALY":91.0286,"EPHEMERIS_TYPE":0,"CLASSIFICATION_TYPE":"U","NORAD_CAT_ID":57715,"ELEMENT_SET_NO":999,"REV_AT_EPOCH":10944,"BSTAR":0.00010684,"MEAN_MOTION_DOT":1.24e-5,"MEAN_MOTION_DDOT":0},{"OBJECT_NAME":"STARLINK-30281","OBJECT_ID":"2023-129U","EPOCH":"2025-08-14T12:34:16.388256","MEAN_MOTION":15.02531272,"ECCENTRICITY":0.0001079,"INCLINATION":43.0032,"RA_OF_ASC_NODE":165.7687,"ARG_OF_PERICENTER":268.6518,"MEAN_ANOMALY":91.4201,"EPHEMERIS_TYPE":0,"CLASSIFICATION_TYPE":"U","NORAD_CAT_ID":57716,"ELEMENT_SET_NO":999,"REV_AT_EPOCH":10935,"BSTAR":-2.568e-5,"MEAN_MOTION_DOT":-5.5e-6,"MEAN_MOTION_DDOT":0},{"OBJECT_NAME":"STARLINK-30325","OBJECT_ID":"2023-129V","EPOCH":"2025-08-14T06:30:32.035968","MEAN_MOTION":15.02534264,"ECCENTRICITY":0.0001147,"INCLINATION":43.0007,"RA_OF_ASC_NODE":167.3138,"ARG_OF_PERICENTER":263.2496,"MEAN_ANOMALY":96.8215,"EPHEMERIS_TYPE":0,"CLASSIFICATION_TYPE":"U","NORAD_CAT_ID":57717,"ELEMENT_SET_NO":999,"REV_AT_EPOCH":10945,"BSTAR":2.0497e-6,"MEAN_MOTION_DOT":-1.76e-6,"MEAN_MOTION_DDOT":0},{"OBJECT_NAME":"STARLINK-30338","OBJECT_ID":"2023-129W","EPOCH":"2025-08-14T12:39:03.541248","MEAN_MOTION":15.0253778,"ECCENTRICITY":8.85e-5,"INCLINATION":43.0029,"RA_OF_ASC_NODE":165.7989,"ARG_OF_PERICENTER":260.9823,"MEAN_ANOMALY":99.0919,"EPHEMERIS_TYPE":0,"CLASSIFICATION_TYPE":"U","NORAD_CAT_ID":57718,"ELEMENT_SET_NO":999,"REV_AT_EPOCH":10949,"BSTAR":5.114e-5,"MEAN_MOTION_DOT":4.87e-6,"MEAN_MOTION_DDOT":0},{"OBJECT_NAME":"STARLINK-30334","OBJECT_ID":"2023-129X","EPOCH":"2025-08-14T03:09:29.347488","MEAN_MOTION":15.02536699,"ECCENTRICITY":0.0001078,"INCLINATION":43.0018,"RA_OF_ASC_NODE":167.9908,"ARG_OF_PERICENTER":264.8403,"MEAN_ANOMALY":95.2316,"EPHEMERIS_TYPE":0,"CLASSIFICATION_TYPE":"U","NORAD_CAT_ID":57719,"ELEMENT_SET_NO":999,"REV_AT_EPOCH":10929,"BSTAR":2.896e-6,"MEAN_MOTION_DOT":-1.64e-6,"MEAN_MOTION_DDOT":0},{"OBJECT_NAME":"STARLINK-30375","OBJECT_ID":"2023-131A","EPOCH":"2025-08-14T05:32:00.868704","MEAN_MOTION":15.0253308,"ECCENTRICITY":0.0001192,"INCLINATION":43.0023,"RA_OF_ASC_NODE":206.5713,"ARG_OF_PERICENTER":294.1132,"MEAN_ANOMALY":65.9586,"EPHEMERIS_TYPE":0,"CLASSIFICATION_TYPE":"U","NORAD_CAT_ID":57732,"ELEMENT_SET_NO":999,"REV_AT_EPOCH":10887,"BSTAR":9.6762e-5,"MEAN_MOTION_DOT":1.104e-5,"MEAN_MOTION_DDOT":0},{"OBJECT_NAME":"STARLINK-30310","OBJECT_ID":"2023-131B","EPOCH":"2025-08-14T05:52:10.940448","MEAN_MOTION":15.02535874,"ECCENTRICITY":0.0001355,"INCLINATION":43.0017,"RA_OF_ASC_NODE":218.5897,"ARG_OF_PERICENTER":278.6578,"MEAN_ANOMALY":81.4111,"EPHEMERIS_TYPE":0,"CLASSIFICATION_TYPE":"U","NORAD_CAT_ID":57733,"ELEMENT_SET_NO":999,"REV_AT_EPOCH":10873,"BSTAR":4.1161e-5,"MEAN_MOTION_DOT":3.52e-6,"MEAN_MOTION_DDOT":0},{"OBJECT_NAME":"STARLINK-30365","OBJECT_ID":"2023-131C","EPOCH":"2025-08-14T00:22:01.092288","MEAN_MOTION":15.02547724,"ECCENTRICITY":0.0001961,"INCLINATION":43.0001,"RA_OF_ASC_NODE":220.2793,"ARG_OF_PERICENTER":296.7991,"MEAN_ANOMALY":63.265,"EPHEMERIS_TYPE":0,"CLASSIFICATION_TYPE":"U","NORAD_CAT_ID":57734,"ELEMENT_SET_NO":999,"REV_AT_EPOCH":10868,"BSTAR":-0.00026498,"MEAN_MOTION_DOT":-3.783e-5,"MEAN_MOTION_DDOT":0},{"OBJECT_NAME":"STARLINK-30371","OBJECT_ID":"2023-131D","EPOCH":"2025-08-14T06:11:21.519744","MEAN_MOTION":15.02538328,"ECCENTRICITY":0.0001346,"INCLINATION":43.0026,"RA_OF_ASC_NODE":218.6902,"ARG_OF_PERICENTER":283.1366,"MEAN_ANOMALY":76.9326,"EPHEMERIS_TYPE":0,"CLASSIFICATION_TYPE":"U","NORAD_CAT_ID":57735,"ELEMENT_SET_NO":999,"REV_AT_EPOCH":10872,"BSTAR":4.5979e-5,"MEAN_MOTION_DOT":4.18e-6,"MEAN_MOTION_DDOT":0},{"OBJECT_NAME":"STARLINK-30352","OBJECT_ID":"2023-131E","EPOCH":"2025-08-14T05:56:58.609248","MEAN_MOTION":15.02539378,"ECCENTRICITY":0.0001205,"INCLINATION":43.0017,"RA_OF_ASC_NODE":218.6187,"ARG_OF_PERICENTER":282.2446,"MEAN_ANOMALY":77.8261,"EPHEMERIS_TYPE":0,"CLASSIFICATION_TYPE":"U","NORAD_CAT_ID":57736,"ELEMENT_SET_NO":999,"REV_AT_EPOCH":10872,"BSTAR":8.9218e-5,"MEAN_MOTION_DOT":1.002e-5,"MEAN_MOTION_DDOT":0},{"OBJECT_NAME":"STARLINK-30344","OBJECT_ID":"2023-131F","EPOCH":"2025-08-14T08:04:40.408320","MEAN_MOTION":15.02537748,"ECCENTRICITY":0.0001215,"INCLINATION":43.0025,"RA_OF_ASC_NODE":218.4295,"ARG_OF_PERICENTER":283.2083,"MEAN_ANOMALY":76.8624,"EPHEMERIS_TYPE":0,"CLASSIFICATION_TYPE":"U","NORAD_CAT_ID":57737,"ELEMENT_SET_NO":999,"REV_AT_EPOCH":10873,"BSTAR":2.8126e-5,"MEAN_MOTION_DOT":1.76e-6,"MEAN_MOTION_DDOT":0},{"OBJECT_NAME":"STARLINK-30351","OBJECT_ID":"2023-131G","EPOCH":"2025-08-14T00:36:24.122016","MEAN_MOTION":15.02534276,"ECCENTRICITY":0.0001353,"INCLINATION":43.0026,"RA_OF_ASC_NODE":220.3908,"ARG_OF_PERICENTER":277.8671,"MEAN_ANOMALY":82.2018,"EPHEMERIS_TYPE":0,"CLASSIFICATION_TYPE":"U","NORAD_CAT_ID":57738,"ELEMENT_SET_NO":999,"REV_AT_EPOCH":10868,"BSTAR":-4.2333e-6,"MEAN_MOTION_DOT":-2.61e-6,"MEAN_MOTION_DDOT":0},{"OBJECT_NAME":"STARLINK-30242","OBJECT_ID":"2023-131H","EPOCH":"2025-08-14T07:19:17.667840","MEAN_MOTION":15.02534395,"ECCENTRICITY":0.0001314,"INCLINATION":43.002,"RA_OF_ASC_NODE":193.2988,"ARG_OF_PERICENTER":263.3688,"MEAN_ANOMALY":96.7005,"EPHEMERIS_TYPE":0,"CLASSIFICATION_TYPE":"U","NORAD_CAT_ID":57739,"ELEMENT_SET_NO":999,"REV_AT_EPOCH":10902,"BSTAR":8.4803e-5,"MEAN_MOTION_DOT":9.42e-6,"MEAN_MOTION_DDOT":0},{"OBJECT_NAME":"STARLINK-30331","OBJECT_ID":"2023-131J","EPOCH":"2025-08-14T06:39:09.726624","MEAN_MOTION":15.27566959,"ECCENTRICITY":0.0001221,"INCLINATION":43.0008,"RA_OF_ASC_NODE":190.7521,"ARG_OF_PERICENTER":288.1149,"MEAN_ANOMALY":71.957,"EPHEMERIS_TYPE":0,"CLASSIFICATION_TYPE":"U","NORAD_CAT_ID":57740,"ELEMENT_SET_NO":999,"REV_AT_EPOCH":10905,"BSTAR":-0.00010497,"MEAN_MOTION_DOT":-3.148e-5,"MEAN_MOTION_DDOT":0},{"OBJECT_NAME":"STARLINK-30364","OBJECT_ID":"2023-131K","EPOCH":"2025-08-14T08:11:04.211808","MEAN_MOTION":15.02539133,"ECCENTRICITY":0.0001284,"INCLINATION":43.0024,"RA_OF_ASC_NODE":218.4586,"ARG_OF_PERICENTER":283.7641,"MEAN_ANOMALY":76.3059,"EPHEMERIS_TYPE":0,"CLASSIFICATION_TYPE":"U","NORAD_CAT_ID":57741,"ELEMENT_SET_NO":999,"REV_AT_EPOCH":10873,"BSTAR":-8.2347e-5,"MEAN_MOTION_DOT":-1.316e-5,"MEAN_MOTION_DDOT":0},{"OBJECT_NAME":"STARLINK-30308","OBJECT_ID":"2023-131L","EPOCH":"2025-08-14T06:54:31.085856","MEAN_MOTION":15.02535921,"ECCENTRICITY":0.0001165,"INCLINATION":43.0036,"RA_OF_ASC_NODE":218.9208,"ARG_OF_PERICENTER":330.606,"MEAN_ANOMALY":29.4717,"EPHEMERIS_TYPE":0,"CLASSIFICATION_TYPE":"U","NORAD_CAT_ID":57742,"ELEMENT_SET_NO":999,"REV_AT_EPOCH":10873,"BSTAR":2.5665e-5,"MEAN_MOTION_DOT":1.43e-6,"MEAN_MOTION_DDOT":0},{"OBJECT_NAME":"STARLINK-30361","OBJECT_ID":"2023-131M","EPOCH":"2025-08-14T08:06:16.267392","MEAN_MOTION":15.02537744,"ECCENTRICITY":0.0001181,"INCLINATION":43.0016,"RA_OF_ASC_NODE":218.4335,"ARG_OF_PERICENTER":279.3873,"MEAN_ANOMALY":80.6836,"EPHEMERIS_TYPE":0,"CLASSIFICATION_TYPE":"U","NORAD_CAT_ID":57743,"ELEMENT_SET_NO":999,"REV_AT_EPOCH":10873,"BSTAR":-1.2901e-5,"MEAN_MOTION_DOT":-3.78e-6,"MEAN_MOTION_DDOT":0},{"OBJECT_NAME":"STARLINK-30363","OBJECT_ID":"2023-131N","EPOCH":"2025-08-14T07:02:56.926752","MEAN_MOTION":15.0253488,"ECCENTRICITY":0.0001078,"INCLINATION":43.002,"RA_OF_ASC_NODE":206.186,"ARG_OF_PERICENTER":265.1734,"MEAN_ANOMALY":94.8985,"EPHEMERIS_TYPE":0,"CLASSIFICATION_TYPE":"U","NORAD_CAT_ID":57744,"ELEMENT_SET_NO":999,"REV_AT_EPOCH":10887,"BSTAR":0.00015723,"MEAN_MOTION_DOT":1.921e-5,"MEAN_MOTION_DDOT":0},{"OBJECT_NAME":"STARLINK-30362","OBJECT_ID":"2023-131P","EPOCH":"2025-08-14T09:37:12.506016","MEAN_MOTION":15.02535108,"ECCENTRICITY":0.0001104,"INCLINATION":43.0027,"RA_OF_ASC_NODE":218.0458,"ARG_OF_PERICENTER":262.5055,"MEAN_ANOMALY":97.5662,"EPHEMERIS_TYPE":0,"CLASSIFICATION_TYPE":"U","NORAD_CAT_ID":57745,"ELEMENT_SET_NO":999,"REV_AT_EPOCH":10874,"BSTAR":-3.0529e-5,"MEAN_MOTION_DOT":-6.16e-6,"MEAN_MOTION_DDOT":0},{"OBJECT_NAME":"STARLINK-30350","OBJECT_ID":"2023-131Q","EPOCH":"2025-08-14T00:45:59.033664","MEAN_MOTION":15.02532735,"ECCENTRICITY":0.0001329,"INCLINATION":43.0025,"RA_OF_ASC_NODE":220.4213,"ARG_OF_PERICENTER":269.467,"MEAN_ANOMALY":90.602,"EPHEMERIS_TYPE":0,"CLASSIFICATION_TYPE":"U","NORAD_CAT_ID":57746,"ELEMENT_SET_NO":999,"REV_AT_EPOCH":10868,"BSTAR":7.0564e-5,"MEAN_MOTION_DOT":7.5e-6,"MEAN_MOTION_DDOT":0},{"OBJECT_NAME":"STARLINK-30307","OBJECT_ID":"2023-131R","EPOCH":"2025-08-14T08:03:04.789440","MEAN_MOTION":15.0253892,"ECCENTRICITY":0.0001184,"INCLINATION":43.0022,"RA_OF_ASC_NODE":218.4143,"ARG_OF_PERICENTER":277.0901,"MEAN_ANOMALY":82.9806,"EPHEMERIS_TYPE":0,"CLASSIFICATION_TYPE":"U","NORAD_CAT_ID":57747,"ELEMENT_SET_NO":999,"REV_AT_EPOCH":10873,"BSTAR":0.00010319,"MEAN_MOTION_DOT":1.191e-5,"MEAN_MOTION_DDOT":0},{"OBJECT_NAME":"STARLINK-30356","OBJECT_ID":"2023-131S","EPOCH":"2025-08-14T06:16:10.414560","MEAN_MOTION":15.02534385,"ECCENTRICITY":0.000117,"INCLINATION":43.0027,"RA_OF_ASC_NODE":218.7178,"ARG_OF_PERICENTER":277.9389,"MEAN_ANOMALY":82.132,"EPHEMERIS_TYPE":0,"CLASSIFICATION_TYPE":"U","NORAD_CAT_ID":57748,"ELEMENT_SET_NO":999,"REV_AT_EPOCH":10872,"BSTAR":8.5263e-5,"MEAN_MOTION_DOT":9.48e-6,"MEAN_MOTION_DDOT":0}]
